[{"OBJECT_NAME":"FLOCK 4H-20","OBJECT_ID":"2025-276BK","EPOCH":"2026-03-09T18:04:42.197952","MEAN_MOTION":15.1978993,"ECCENTRICITY":0.00014172,"INCLINATION":97.4281,"RA_OF_ASC_NODE":144.1685,"ARG_OF_PERICENTER":295.795,"MEAN_ANOMALY":64.3138,"EPHEMERIS_TYPE":0,"CLASSIFICATION_TYPE":"U","NORAD_CAT_ID":66723,"ELEMENT_SET_NO":999,"REV_AT_EPOCH":1458,"BSTAR":0.0004218455,"MEAN_MOTION_DOT":8.967e-5,"MEAN_MOTION_DDOT":0},{"OBJECT_NAME":"T.MICROSAT-1","OBJECT_ID":"2025-276DE","EPOCH":"2026-03-09T18:04:16.042944","MEAN_MOTION":15.19633457,"ECCENTRICITY":0.00017032,"INCLINATION":97.4229,"RA_OF_ASC_NODE":144.0903,"ARG_OF_PERICENTER":122.7735,"MEAN_ANOMALY":237.3665,"EPHEMERIS_TYPE":0,"CLASSIFICATION_TYPE":"U","NORAD_CAT_ID":66766,"ELEMENT_SET_NO":999,"REV_AT_EPOCH":1533,"BSTAR":0.00037369348,"MEAN_MOTION_DOT":7.899e-5,"MEAN_MOTION_DDOT":0}]
